{
  "norad_id": 65881,
  "name": "STARLINK-35464",
  "history": [
    {
      "epoch": "2026-03-28T17:04:04.381248Z",
      "apogee_km": 475.95411384827366,
      "perigee_km": 474.45090236056603,
      "latitude_deg": -3.655888728949113e-05,
      "longitude_deg": 123.97162863453623,
      "height_km": 475.7465711354991,
      "semi_major_axis_km": 6853.339508104419,
      "eccentricity": 0.00010967,
      "inclination_deg": 53.1605,
      "raan_deg": 206.1176,
      "arg_perigee_deg": 61.8591,
      "mean_anomaly_deg": 298.252,
      "mean_motion_rev_day": 15.30204207
    },
    {
      "epoch": "2026-03-29T00:54:20.568384Z",
      "apogee_km": 476.0972079153862,
      "perigee_km": 474.2687421460496,
      "latitude_deg": -5.991848356805928e-05,
      "longitude_deg": 4.566176505020421,
      "height_km": 475.90705708299026,
      "semi_major_axis_km": 6853.319975030718,
      "eccentricity": 0.0001334,
      "inclination_deg": 53.1592,
      "raan_deg": 204.6015,
      "arg_perigee_deg": 79.0367,
      "mean_anomaly_deg": 281.0783,
      "mean_motion_rev_day": 15.30210749
    },
    {
      "epoch": "2026-03-30T00:25:08.552640Z",
      "apogee_km": 476.1060276589624,
      "perigee_km": 474.2515204105084,
      "latitude_deg": -3.387266775996853e-05,
      "longitude_deg": 6.349703912610201,
      "height_km": 476.01711869375487,
      "semi_major_axis_km": 6853.315774034735,
      "eccentricity": 0.0001353,
      "inclination_deg": 53.1591,
      "raan_deg": 200.0506,
      "arg_perigee_deg": 86.3188,
      "mean_anomaly_deg": 273.7967,
      "mean_motion_rev_day": 15.30212156
    },
    {
      "epoch": "2026-03-30T00:25:08.553504Z",
      "apogee_km": 476.1057535263308,
      "perigee_km": 474.25179454314,
      "latitude_deg": -3.0189674925508584e-05,
      "longitude_deg": 6.349703046827748,
      "height_km": 476.01713629388905,
      "semi_major_axis_km": 6853.315774034735,
      "eccentricity": 0.00013526,
      "inclination_deg": 53.1591,
      "raan_deg": 200.0506,
      "arg_perigee_deg": 86.3188,
      "mean_anomaly_deg": 273.7967,
      "mean_motion_rev_day": 15.30212156
    },
    {
      "epoch": "2026-03-30T12:57:34.296192Z",
      "apogee_km": 475.99264189814403,
      "perigee_km": 474.459681626121,
      "latitude_deg": -4.070697778026906e-05,
      "longitude_deg": 175.2974152358549,
      "height_km": 476.2729021097402,
      "semi_major_axis_km": 6853.363161762132,
      "eccentricity": 0.00011184,
      "inclination_deg": 53.1609,
      "raan_deg": 197.6206,
      "arg_perigee_deg": 101.1585,
      "mean_anomaly_deg": 258.9541,
      "mean_motion_rev_day": 15.30196285
    },
    {
      "epoch": "2026-03-30T16:05:40.751520Z",
      "apogee_km": 475.9613003860986,
      "perigee_km": 474.49029459524536,
      "latitude_deg": 4.635007330601913e-05,
      "longitude_deg": 127.53742797919665,
      "height_km": 476.17267462682116,
      "semi_major_axis_km": 6853.362797490672,
      "eccentricity": 0.00010732,
      "inclination_deg": 53.1587,
      "raan_deg": 197.0162,
      "arg_perigee_deg": 93.795,
      "mean_anomaly_deg": 266.3174,
      "mean_motion_rev_day": 15.30196407
    },
    {
      "epoch": "2026-03-31T06:12:09.175392Z",
      "apogee_km": 475.95500895059195,
      "perigee_km": 474.3568210428157,
      "latitude_deg": 4.6003100077541137e-05,
      "longitude_deg": -87.3899950165791,
      "height_km": 476.1473756640443,
      "semi_major_axis_km": 6853.292914996704,
      "eccentricity": 0.0001166,
      "inclination_deg": 53.1583,
      "raan_deg": 194.2866,
      "arg_perigee_deg": 96.7134,
      "mean_anomaly_deg": 263.4,
      "mean_motion_rev_day": 15.30219812
    },
    {
      "epoch": "2026-04-01T13:33:13.843584Z",
      "apogee_km": 476.0377445107897,
      "perigee_km": 474.47928237103406,
      "latitude_deg": -3.726426906712043e-05,
      "longitude_deg": 154.9855418735941,
      "height_km": 475.8654915226437,
      "semi_major_axis_km": 6853.395513440912,
      "eccentricity": 0.0001137,
      "inclination_deg": 53.1577,
      "raan_deg": 188.2192,
      "arg_perigee_deg": 68.0601,
      "mean_anomaly_deg": 292.052,
      "mean_motion_rev_day": 15.3018545
    },
    {
      "epoch": "2026-04-02T13:04:00.869664Z",
      "apogee_km": 476.087904267084,
      "perigee_km": 474.2798611518083,
      "latitude_deg": -4.108016044122385e-06,
      "longitude_deg": 156.77297831890138,
      "height_km": 475.79637064352863,
      "semi_major_axis_km": 6853.320882709446,
      "eccentricity": 0.00013191,
      "inclination_deg": 53.158,
      "raan_deg": 183.6682,
      "arg_perigee_deg": 71.5964,
      "mean_anomaly_deg": 288.518,
      "mean_motion_rev_day": 15.30210445
    },
    {
      "epoch": "2026-04-02T22:28:19.744896Z",
      "apogee_km": 475.92460187555207,
      "perigee_km": 474.3294361424878,
      "latitude_deg": -3.883285745304256e-05,
      "longitude_deg": 13.488046307790478,
      "height_km": 475.8704002867275,
      "semi_major_axis_km": 6853.26401900902,
      "eccentricity": 0.00011638,
      "inclination_deg": 53.1565,
      "raan_deg": 181.8482,
      "arg_perigee_deg": 78.8297,
      "mean_anomaly_deg": 281.2834,
      "mean_motion_rev_day": 15.3022949
    },
    {
      "epoch": "2026-04-03T12:34:48.902304Z",
      "apogee_km": 476.00192363524457,
      "perigee_km": 474.6679638561136,
      "latitude_deg": 3.138119289431211e-05,
      "longitude_deg": 158.55731038226463,
      "height_km": 475.8020177259067,
      "semi_major_axis_km": 6853.471943745679,
      "eccentricity": 9.732e-05,
      "inclination_deg": 53.1568,
      "raan_deg": 179.1183,
      "arg_perigee_deg": 49.7052,
      "mean_anomaly_deg": 310.4034,
      "mean_motion_rev_day": 15.30159853
    },
    {
      "epoch": "2026-04-04T12:05:38.140224Z",
      "apogee_km": 476.0803653186649,
      "perigee_km": 474.21284553618716,
      "latitude_deg": 3.1095678978019695e-05,
      "longitude_deg": 160.33527924546124,
      "height_km": 475.60812153468885,
      "semi_major_axis_km": 6853.283605427426,
      "eccentricity": 0.00013625,
      "inclination_deg": 53.1573,
      "raan_deg": 174.5671,
      "arg_perigee_deg": 62.1391,
      "mean_anomaly_deg": 297.9748,
      "mean_motion_rev_day": 15.3022293
    },
    {
      "epoch": "2026-04-05T11:36:25.706304Z",
      "apogee_km": 476.06521689126566,
      "perigee_km": 474.28061498915395,
      "latitude_deg": 3.915525419712056e-05,
      "longitude_deg": 162.12133857603942,
      "height_km": 475.85748815227225,
      "semi_major_axis_km": 6853.309915940209,
      "eccentricity": 0.0001302,
      "inclination_deg": 53.1576,
      "raan_deg": 170.017,
      "arg_perigee_deg": 76.1727,
      "mean_anomaly_deg": 283.9419,
      "mean_motion_rev_day": 15.30214118
    },
    {
      "epoch": "2026-04-06T04:51:00.442944Z",
      "apogee_km": 476.06755769755,
      "perigee_km": 474.1834587687872,
      "latitude_deg": 2.362953666052222e-05,
      "longitude_deg": -100.56945454321247,
      "height_km": 475.64292838713135,
      "semi_major_axis_km": 6853.262508233169,
      "eccentricity": 0.00013746,
      "inclination_deg": 53.158,
      "raan_deg": 166.6791,
      "arg_perigee_deg": 66.1792,
      "mean_anomaly_deg": 293.9353,
      "mean_motion_rev_day": 15.30229996
    },
    {
      "epoch": "2026-04-07T13:46:08.414400Z",
      "apogee_km": 476.23857154447523,
      "perigee_km": 474.1387125677493,
      "latitude_deg": -4.982105245253337e-05,
      "longitude_deg": 117.92434226556432,
      "height_km": 475.7119405384164,
      "semi_major_axis_km": 6853.325642056112,
      "eccentricity": 0.0001532,
      "inclination_deg": 53.1586,
      "raan_deg": 160.3081,
      "arg_perigee_deg": 69.1075,
      "mean_anomaly_deg": 291.0089,
      "mean_motion_rev_day": 15.30208851
    },
    {
      "epoch": "2026-04-08T13:16:55.312608Z",
      "apogee_km": 475.53046116849964,
      "perigee_km": 474.7287660400407,
      "latitude_deg": 8.445277831832752e-06,
      "longitude_deg": 119.7128278021338,
      "height_km": 475.80156143945834,
      "semi_major_axis_km": 6853.26661360427,
      "eccentricity": 5.849e-05,
      "inclination_deg": 53.1583,
      "raan_deg": 155.7576,
      "arg_perigee_deg": 55.508,
      "mean_anomaly_deg": 304.5976,
      "mean_motion_rev_day": 15.30228621
    }
  ]
}